CCSDS_OMM_VERS = 2.0
CREATION_DATE  = 
ORIGINATOR     = 

OBJECT_NAME    = SL-3 R/B
OBJECT_ID      = 1982-079B
CENTER_NAME    = EARTH
REF_FRAME      = TEME
TIME_SYSTEM    = UTC
MEAN_ELEMENT_THEORY = SGP/SGP4

EPOCH          = 2025-12-22T03:18:24.393312
MEAN_MOTION    = 15.23691717
ECCENTRICITY   = .0026995
INCLINATION    = 81.1482
RA_OF_ASC_NODE = 284.5824
ARG_OF_PERICENTER = 68.9014
MEAN_ANOMALY   = 291.5101

EPHEMERIS_TYPE = 0
CLASSIFICATION_TYPE = U
NORAD_CAT_ID   = 13403
ELEMENT_SET_NO = 999
REV_AT_EPOCH   = 36588
BSTAR          = .26436E-3
MEAN_MOTION_DOT = .6435E-4
MEAN_MOTION_DDOT = 0

CCSDS_OMM_VERS = 2.0
CREATION_DATE  = 
ORIGINATOR     = 

OBJECT_NAME    = SL-14 R/B
OBJECT_ID      = 1982-092B
CENTER_NAME    = EARTH
REF_FRAME      = TEME
TIME_SYSTEM    = UTC
MEAN_ELEMENT_THEORY = SGP/SGP4

EPOCH          = 2025-12-22T02:44:58.667424
MEAN_MOTION    = 14.86564188
ECCENTRICITY   = .001988
INCLINATION    = 82.5674
RA_OF_ASC_NODE = 213.9444
ARG_OF_PERICENTER = 194.5690
MEAN_ANOMALY   = 282.5882

EPHEMERIS_TYPE = 0
CLASSIFICATION_TYPE = U
NORAD_CAT_ID   = 13553
ELEMENT_SET_NO = 999
REV_AT_EPOCH   = 31740
BSTAR          = .47127E-4
MEAN_MOTION_DOT = .443E-5
MEAN_MOTION_DDOT = 0

CCSDS_OMM_VERS = 2.0
CREATION_DATE  = 
ORIGINATOR     = 

OBJECT_NAME    = SL-3 R/B
OBJECT_ID      = 1983-010B
CENTER_NAME    = EARTH
REF_FRAME      = TEME
TIME_SYSTEM    = UTC
MEAN_ELEMENT_THEORY = SGP/SGP4

EPOCH          = 2025-12-21T17:13:46.128000
MEAN_MOTION    = 15.43681423
ECCENTRICITY   = .0016688
INCLINATION    = 81.1050
RA_OF_ASC_NODE = 97.6589
ARG_OF_PERICENTER = 319.3001
MEAN_ANOMALY   = 40.6994

EPHEMERIS_TYPE = 0
CLASSIFICATION_TYPE = U
NORAD_CAT_ID   = 13819
ELEMENT_SET_NO = 999
REV_AT_EPOCH   = 34590
BSTAR          = .2717E-3
MEAN_MOTION_DOT = .12345E-3
MEAN_MOTION_DDOT = 0

CCSDS_OMM_VERS = 2.0
CREATION_DATE  = 
ORIGINATOR     = 

OBJECT_NAME    = SL-3 R/B
OBJECT_ID      = 1983-075B
CENTER_NAME    = EARTH
REF_FRAME      = TEME
TIME_SYSTEM    = UTC
MEAN_ELEMENT_THEORY = SGP/SGP4

EPOCH          = 2025-12-22T02:26:38.131872
MEAN_MOTION    = 15.36310737
ECCENTRICITY   = .0023724
INCLINATION    = 97.6103
RA_OF_ASC_NODE = 352.9003
ARG_OF_PERICENTER = 142.8490
MEAN_ANOMALY   = 217.4401

EPHEMERIS_TYPE = 0
CLASSIFICATION_TYPE = U
NORAD_CAT_ID   = 14208
ELEMENT_SET_NO = 999
REV_AT_EPOCH   = 31823
BSTAR          = .2937E-3
MEAN_MOTION_DOT = .1041E-3
MEAN_MOTION_DDOT = 0

CCSDS_OMM_VERS = 2.0
CREATION_DATE  = 
ORIGINATOR     = 

OBJECT_NAME    = COSMOS 1536
OBJECT_ID      = 1984-013A
CENTER_NAME    = EARTH
REF_FRAME      = TEME
TIME_SYSTEM    = UTC
MEAN_ELEMENT_THEORY = SGP/SGP4

EPOCH          = 2025-12-22T00:10:23.490912
MEAN_MOTION    = 15.22619604
ECCENTRICITY   = .0014201
INCLINATION    = 82.5440
RA_OF_ASC_NODE = 184.9725
ARG_OF_PERICENTER = 191.1164
MEAN_ANOMALY   = 168.9761

EPHEMERIS_TYPE = 0
CLASSIFICATION_TYPE = U
NORAD_CAT_ID   = 14699
ELEMENT_SET_NO = 999
REV_AT_EPOCH   = 26079
BSTAR          = .28579E-3
MEAN_MOTION_DOT = .6693E-4
MEAN_MOTION_DDOT = 0

CCSDS_OMM_VERS = 2.0
CREATION_DATE  = 
ORIGINATOR     = 

OBJECT_NAME    = SL-14 R/B
OBJECT_ID      = 1984-027B
CENTER_NAME    = EARTH
REF_FRAME      = TEME
TIME_SYSTEM    = UTC
MEAN_ELEMENT_THEORY = SGP/SGP4

EPOCH          = 2025-12-22T04:27:00.453888
MEAN_MOTION    = 14.85883978
ECCENTRICITY   = .0016716
INCLINATION    = 82.5420
RA_OF_ASC_NODE = 317.6977
ARG_OF_PERICENTER = 226.7686
MEAN_ANOMALY   = 133.2136

EPHEMERIS_TYPE = 0
CLASSIFICATION_TYPE = U
NORAD_CAT_ID   = 14820
ELEMENT_SET_NO = 999
REV_AT_EPOCH   = 23612
BSTAR          = .53623E-4
MEAN_MOTION_DOT = .492E-5
MEAN_MOTION_DDOT = 0

CCSDS_OMM_VERS = 2.0
CREATION_DATE  = 
ORIGINATOR     = 

OBJECT_NAME    = SL-8 R/B
OBJECT_ID      = 1985-006B
CENTER_NAME    = EARTH
REF_FRAME      = TEME
TIME_SYSTEM    = UTC
MEAN_ELEMENT_THEORY = SGP/SGP4

EPOCH          = 2025-12-22T03:20:34.072800
MEAN_MOTION    = 14.37726546
ECCENTRICITY   = .0019097
INCLINATION    = 74.0461
RA_OF_ASC_NODE = 43.8414
ARG_OF_PERICENTER = 334.0702
MEAN_ANOMALY   = 57.5812

EPHEMERIS_TYPE = 0
CLASSIFICATION_TYPE = U
NORAD_CAT_ID   = 15483
ELEMENT_SET_NO = 999
REV_AT_EPOCH   = 14288
BSTAR          = .92395E-4
MEAN_MOTION_DOT = .252E-5
MEAN_MOTION_DDOT = 0

CCSDS_OMM_VERS = 2.0
CREATION_DATE  = 
ORIGINATOR     = 

OBJECT_NAME    = SL-12 R/B(2)
OBJECT_ID      = 1985-042D
CENTER_NAME    = EARTH
REF_FRAME      = TEME
TIME_SYSTEM    = UTC
MEAN_ELEMENT_THEORY = SGP/SGP4

EPOCH          = 2025-12-21T21:26:25.643040
MEAN_MOTION    = 14.21954619
ECCENTRICITY   = .0037377
INCLINATION    = 71.1074
RA_OF_ASC_NODE = 252.0824
ARG_OF_PERICENTER = 248.0368
MEAN_ANOMALY   = 184.8329

EPHEMERIS_TYPE = 0
CLASSIFICATION_TYPE = U
NORAD_CAT_ID   = 15772
ELEMENT_SET_NO = 999
REV_AT_EPOCH   = 10333
BSTAR          = .63011E-4
MEAN_MOTION_DOT = .92E-6
MEAN_MOTION_DDOT = 0

CCSDS_OMM_VERS = 2.0
CREATION_DATE  = 
ORIGINATOR     = 

OBJECT_NAME    = SL-14 R/B
OBJECT_ID      = 1985-069B
CENTER_NAME    = EARTH
REF_FRAME      = TEME
TIME_SYSTEM    = UTC
MEAN_ELEMENT_THEORY = SGP/SGP4

EPOCH          = 2025-12-21T17:20:29.489856
MEAN_MOTION    = 14.86334034
ECCENTRICITY   = .0020342
INCLINATION    = 82.5273
RA_OF_ASC_NODE = 98.2585
ARG_OF_PERICENTER = 90.8975
MEAN_ANOMALY   = 269.4573

EPHEMERIS_TYPE = 0
CLASSIFICATION_TYPE = U
NORAD_CAT_ID   = 15945
ELEMENT_SET_NO = 999
REV_AT_EPOCH   = 16125
BSTAR          = .47573E-4
MEAN_MOTION_DOT = .445E-5
MEAN_MOTION_DDOT = 0

CCSDS_OMM_VERS = 2.0
CREATION_DATE  = 
ORIGINATOR     = 

OBJECT_NAME    = SL-16 R/B
OBJECT_ID      = 1985-097B
CENTER_NAME    = EARTH
REF_FRAME      = TEME
TIME_SYSTEM    = UTC
MEAN_ELEMENT_THEORY = SGP/SGP4

EPOCH          = 2025-12-22T04:15:52.867008
MEAN_MOTION    = 14.16587872
ECCENTRICITY   = .0007326
INCLINATION    = 71.0038
RA_OF_ASC_NODE = 303.7333
ARG_OF_PERICENTER = 355.7060
MEAN_ANOMALY   = 99.1411

EPHEMERIS_TYPE = 0
CLASSIFICATION_TYPE = U
NORAD_CAT_ID   = 16182
ELEMENT_SET_NO = 999
REV_AT_EPOCH   = 7625
BSTAR          = -.16143E-4
MEAN_MOTION_DOT = -.8E-6
MEAN_MOTION_DDOT = 0

CCSDS_OMM_VERS = 2.0
CREATION_DATE  = 
ORIGINATOR     = 

OBJECT_NAME    = SL-14 R/B
OBJECT_ID      = 1986-006B
CENTER_NAME    = EARTH
REF_FRAME      = TEME
TIME_SYSTEM    = UTC
MEAN_ELEMENT_THEORY = SGP/SGP4

EPOCH          = 2025-12-21T23:43:01.845984
MEAN_MOTION    = 14.86682850
ECCENTRICITY   = .0076971
INCLINATION    = 82.5268
RA_OF_ASC_NODE = 332.8484
ARG_OF_PERICENTER = 169.0664
MEAN_ANOMALY   = 191.2250

EPHEMERIS_TYPE = 0
CLASSIFICATION_TYPE = U
NORAD_CAT_ID   = 16496
ELEMENT_SET_NO = 999
REV_AT_EPOCH   = 13766
BSTAR          = .55345E-4
MEAN_MOTION_DOT = .546E-5
MEAN_MOTION_DDOT = 0

CCSDS_OMM_VERS = 2.0
CREATION_DATE  = 
ORIGINATOR     = 

OBJECT_NAME    = COSMOS 1743
OBJECT_ID      = 1986-034A
CENTER_NAME    = EARTH
REF_FRAME      = TEME
TIME_SYSTEM    = UTC
MEAN_ELEMENT_THEORY = SGP/SGP4

EPOCH          = 2025-12-21T22:28:32.172672
MEAN_MOTION    = 15.52637963
ECCENTRICITY   = .0004925
INCLINATION    = 82.5346
RA_OF_ASC_NODE = 155.0356
ARG_OF_PERICENTER = 213.7410
MEAN_ANOMALY   = 146.3530

EPHEMERIS_TYPE = 0
CLASSIFICATION_TYPE = U
NORAD_CAT_ID   = 16719
ELEMENT_SET_NO = 999
REV_AT_EPOCH   = 16816
BSTAR          = .5425E-3
MEAN_MOTION_DOT = .33515E-3
MEAN_MOTION_DDOT = 0

