SL-3 R/B                
1 13403U 82079B   25356.13778233  .00006435  00000+0  26436-3 0  9993
2 13403  81.1482 284.5824 0026995  68.9014 291.5101 15.23691717365880
SL-14 R/B               
1 13553U 82092B   25356.11456791  .00000443  00000+0  47127-4 0  9998
2 13553  82.5674 213.9444 0019880 194.5690 282.5882 14.86564188317409
SL-3 R/B                
1 13819U 83010B   25355.71789500  .00012345  00000+0  27170-3 0  9995
2 13819  81.1050  97.6589 0016688 319.3001  40.6994 15.43681423345909
SL-3 R/B                
1 14208U 83075B   25356.10183023  .00010410  00000+0  29370-3 0  9996
2 14208  97.6103 352.9003 0023724 142.8490 217.4401 15.36310737318233
COSMOS 1536             
1 14699U 84013A   25356.00721633  .00006693  00000+0  28579-3 0  9995
2 14699  82.5440 184.9725 0014201 191.1164 168.9761 15.22619604260799
SL-14 R/B               
1 14820U 84027B   25356.18542192  .00000492  00000+0  53623-4 0  9996
2 14820  82.5420 317.6977 0016716 226.7686 133.2136 14.85883978236120
SL-8 R/B                
1 15483U 85006B   25356.13928325  .00000252  00000+0  92395-4 0  9994
2 15483  74.0461  43.8414 0019097 334.0702  57.5812 14.37726546142880
SL-12 R/B(2)            
1 15772U 85042D   25355.89335235  .00000092  00000+0  63011-4 0  9994
2 15772  71.1074 252.0824 0037377 248.0368 184.8329 14.21954619103332
SL-14 R/B               
1 15945U 85069B   25355.72256354  .00000445  00000+0  47573-4 0  9998
2 15945  82.5273  98.2585 0020342  90.8975 269.4573 14.86334034161256
SL-16 R/B               
1 16182U 85097B   25356.17769522 -.00000080  00000+0 -16143-4 0  9995
2 16182  71.0038 303.7333 0007326 355.7060  99.1411 14.16587872 76259
SL-14 R/B               
1 16496U 86006B   25355.98821581  .00000546  00000+0  55345-4 0  9998
2 16496  82.5268 332.8484 0076971 169.0664 191.2250 14.86682850137664
COSMOS 1743             
1 16719U 86034A   25355.93648348  .00033515  00000+0  54250-3 0  9995
2 16719  82.5346 155.0356 0004925 213.7410 146.3530 15.52637963168168
